STARLINK-11594 [DTC]    
1 64320U 25124D   26199.62892433  .00103504  00000+0  79982-3 0  9993
2 64320  42.9994 320.3232 0000742 204.9649 155.1183 15.70849319 63422
STARLINK-11596 [DTC]    
1 64321U 25124E   26198.72814365  .00096945  00000+0  74997-3 0  9993
2 64321  43.0011 325.6053 0002050 277.4829  82.5806 15.70847211 63281
STARLINK-11747 [DTC]    
1 64322U 25124F   26199.60768818  .00116329  00000+0  89729-3 0  9991
2 64322  43.0004 320.1538 0001774 274.7449  85.3216 15.70843452 63427
STARLINK-11728 [DTC]    
1 64323U 25124G   26199.63941443  .00103084  00000+0  79726-3 0  9992
2 64323  42.9987 319.5132 0002731 285.6326  74.4240 15.70827495 63433
STARLINK-11696 [DTC]    
1 64324U 25124H   26198.75986372  .00105534  00000+0  81246-3 0  9997
2 64324  43.0026 324.9634 0003974 270.0508  89.9904 15.70923037 63298
STARLINK-11698 [DTC]    
1 64325U 25124J   26198.82966863  .00123461  00000+0  94962-3 0  9997
2 64325  43.0033 324.6283 0002758 267.2373  92.8179 15.70882988 63309
STARLINK-11674 [DTC]    
1 64327U 25124L   26199.39038776  .00122510  00000+0  94166-3 0  9995
2 64327  42.9989 321.0856 0002241 258.3035 101.7581 15.70903961 63390
STARLINK-11707 [DTC]    
1 64328U 25124M   26198.83406958  .00104593  00000+0  80733-3 0  9991
2 64328  43.0013 324.6640 0002045 276.5850  83.4784 15.70870564 63304
STARLINK-11734 [DTC]    
1 64329U 25124N   26199.37977136  .00131681  00000+0  10117-2 0  9999
2 64329  42.9984 320.9999 0001406 270.6035  89.4672 15.70883301 63390
STARLINK-34252          
1 64330U 25124P   26199.03914647  .00008647  00000+0  32334-3 0  9993
2 64330  42.9975 105.7445 0000452 257.0144 103.0657 15.27584410 61718
STARLINK-34050          
1 64331U 25124Q   26199.61734420  .00005095  00000+0  19450-3 0  9995
2 64331  42.9998 102.3356 0001280 260.2625  99.8082 15.27584460 62864
STARLINK-33782          
1 64332U 25124R   26199.08268613  .00012515  00000+0  46337-3 0  9992
2 64332  43.0015 105.2014 0001483 268.6244  91.4438 15.27591084 61721
STARLINK-34207          
1 64333U 25124S   26199.42761110  .00006622  00000+0  24995-3 0  9999
2 64333  42.9991 103.4961 0001082 269.4590  90.6137 15.27580478 61779
STARLINK-34260          
1 64334U 25124T   26199.43532659  .00008044  00000+0  30151-3 0  9996
2 64334  42.9957 103.5571 0000140  34.2345 325.8515 15.27577992 61770
STARLINK-33855          
1 64335U 25124U   26199.14422285  .00014698  00000+0  54247-3 0  9992
2 64335  42.9972 104.8058 0001024 300.2317  59.8433 15.27586860 61732
STARLINK-34223          
1 64336U 25124V   26199.13314578  .00020243  00000+0  74239-3 0  9993
2 64336  43.0016 101.2565 0001739 255.2531 104.8128 15.27611904 61772
STARLINK-34216          
1 64337U 25124W   26198.80314912  .00009291  00000+0  34666-3 0  9999
2 64337  43.0007 106.5422 0001065 230.5787 129.4970 15.27587023 61686
STARLINK-34218          
1 64338U 25124X   26199.01393821  .00010268  00000+0  38219-3 0  9994
2 64338  43.0000 102.0872 0001014 251.3095 108.7647 15.27573568 61755
STARLINK-34017          
1 64339U 25124Y   26199.02501274  .00006362  00000+0  24048-3 0  9994
2 64339  42.9978 105.6239 0000745 257.5389 102.5379 15.27583141 61716
QPS-SAR-11 (YAMATSUMI-I)
1 64340U 25125A   26198.91838636  .00002237  00000+0  18252-3 0  9996
2 64340  42.0088  22.2972 0010926 320.5917  39.4113 15.01844527 60240
STARLINK-33977          
1 64344U 25126A   26199.07248161  .00002844  00000+0  24608-3 0  9993
2 64344  70.0001  65.6520 0002514 268.2400  91.8471 14.98323486 61420
STARLINK-34426          
1 64345U 25126B   26199.06813190  .00002832  00000+0  24501-3 0  9992
2 64345  70.0000  65.6314 0002920 267.0543  93.0282 14.98341499 60211
STARLINK-34437          
1 64346U 25126C   26199.63144898  .00002572  00000+0  22329-3 0  9995
2 64346  70.0001  64.3896 0002780 267.4153  92.6688 14.98332403 60297
STARLINK-34407          
1 64347U 25126D   26199.63577325  .00002223  00000+0  19400-3 0  9990
2 64347  70.0000  64.4002 0003013 266.8569  93.2245 14.98336340 60291
STARLINK-34274          
1 64348U 25126E   26199.58138258  .00002432  00000+0  21153-3 0  9993
2 64348  70.0001  64.6172 0002569 264.3210  95.7657 14.98336487 60289
STARLINK-34301          
1 64349U 25126F   26199.53962253  .00000783  00000+0  73414-4 0  9994
2 64349  69.9999  64.4677 0002600 268.1842  91.9020 14.98331427 60281
STARLINK-34425          
1 64350U 25126G   26199.02643271  .00003177  00000+0  27392-3 0  9999
2 64350  69.9999  65.8867 0002684 270.6039  89.4812 14.98327297 60200
STARLINK-34389          
1 64351U 25126H   26199.61489643  .00002355  00000+0  20511-3 0  9999
2 64351  69.9999  64.3251 0002686 271.9447  88.1404 14.98324504 60291
STARLINK-34385          
1 64352U 25126J   26199.63977636  .00001282  00000+0  11523-3 0  9997
2 64352  70.0003  64.4179 0002579 268.1963  91.8900 14.98332761 60299
STARLINK-34431          
1 64353U 25126K   26199.06829188  .00001903  00000+0  16718-3 0  9994
2 64353  70.0001  65.6348 0002195 269.4788  90.6119 14.98335597 60213
