OBJECT_NAME,OBJECT_ID,EPOCH,MEAN_MOTION,ECCENTRICITY,INCLINATION,RA_OF_ASC_NODE,ARG_OF_PERICENTER,MEAN_ANOMALY,EPHEMERIS_TYPE,CLASSIFICATION_TYPE,NORAD_CAT_ID,ELEMENT_SET_NO,REV_AT_EPOCH,BSTAR,MEAN_MOTION_DOT,MEAN_MOTION_DDOT
STARLINK-11594 [DTC],2025-124D,2026-07-18T15:05:39.062112,15.70849319,.00007421,42.9994,320.3232,204.9649,155.1183,0,U,64320,999,6342,.79981763E-3,.103504E-2,0
STARLINK-11596 [DTC],2025-124E,2026-07-17T17:28:31.611360,15.70847211,.00020508,43.0011,325.6053,277.4829,82.5806,0,U,64321,999,6328,.74997283E-3,.96945E-3,0
STARLINK-11747 [DTC],2025-124F,2026-07-18T14:35:04.258752,15.70843452,.00017743,43.0004,320.1538,274.7449,85.3216,0,U,64322,999,6342,.89729431E-3,.116329E-2,0
STARLINK-11728 [DTC],2025-124G,2026-07-18T15:20:45.406752,15.70827495,.00027312,42.9987,319.5132,285.6326,74.4240,0,U,64323,999,6343,.79726043E-3,.103084E-2,0
STARLINK-11696 [DTC],2025-124H,2026-07-17T18:14:12.225408,15.70923037,.00039742,43.0026,324.9634,270.0508,89.9904,0,U,64324,999,6329,.81246452E-3,.105534E-2,0
STARLINK-11698 [DTC],2025-124J,2026-07-17T19:54:43.369632,15.70882988,.00027587,43.0033,324.6283,267.2373,92.8179,0,U,64325,999,6330,.9496232E-3,.123461E-2,0
STARLINK-11674 [DTC],2025-124L,2026-07-18T09:22:09.502464,15.70903961,.00022419,42.9989,321.0856,258.3035,101.7581,0,U,64327,999,6339,.94166127E-3,.12251E-2,0
STARLINK-11707 [DTC],2025-124M,2026-07-17T20:01:03.611712,15.70870564,.00020453,43.0013,324.6640,276.5850,83.4784,0,U,64328,999,6330,.80733225E-3,.104593E-2,0
STARLINK-11734 [DTC],2025-124N,2026-07-18T09:06:52.245504,15.70883301,.00014066,42.9984,320.9999,270.6035,89.4672,0,U,64329,999,6339,.1011696E-2,.131681E-2,0
STARLINK-34252,2025-124P,2026-07-18T00:56:22.255008,15.27584410,.00004524,42.9975,105.7445,257.0144,103.0657,0,U,64330,999,6171,.32333528E-3,.8647E-4,0
STARLINK-34050,2025-124Q,2026-07-18T14:48:58.538880,15.27584460,.00012801,42.9998,102.3356,260.2625,99.8082,0,U,64331,999,6286,.19450251E-3,.5095E-4,0
STARLINK-33782,2025-124R,2026-07-18T01:59:04.081632,15.27591084,.00014831,43.0015,105.2014,268.6244,91.4438,0,U,64332,999,6172,.46336818E-3,.12515E-3,0
STARLINK-34207,2025-124S,2026-07-18T10:15:45.599040,15.27580478,.00010828,42.9991,103.4961,269.4590,90.6137,0,U,64333,999,6177,.24994975E-3,.6622E-4,0
STARLINK-34260,2025-124T,2026-07-18T10:26:52.217376,15.27577992,.00001401,42.9957,103.5571,34.2345,325.8515,0,U,64334,999,6177,.30150599E-3,.8044E-4,0
STARLINK-33855,2025-124U,2026-07-18T03:27:40.854240,15.27586860,.00010242,42.9972,104.8058,300.2317,59.8433,0,U,64335,999,6173,.54247093E-3,.14698E-3,0
STARLINK-34223,2025-124V,2026-07-18T03:11:43.795392,15.27611904,.00017391,43.0016,101.2565,255.2531,104.8128,0,U,64336,999,6177,.74238619E-3,.20243E-3,0
STARLINK-34216,2025-124W,2026-07-17T19:16:32.083968,15.27587023,.00010657,43.0007,106.5422,230.5787,129.4970,0,U,64337,999,6168,.34665966E-3,.9291E-4,0
STARLINK-34218,2025-124X,2026-07-18T00:20:04.261344,15.27573568,.00010147,43.0000,102.0872,251.3095,108.7647,0,U,64338,999,6175,.38219342E-3,.10268E-3,0
STARLINK-34017,2025-124Y,2026-07-18T00:36:01.100736,15.27583141,.00007459,42.9978,105.6239,257.5389,102.5379,0,U,64339,999,6171,.24047651E-3,.6362E-4,0
QPS-SAR-11 (YAMATSUMI-I),2025-125A,2026-07-17T22:02:28.581504,15.01844527,.0010926,42.0088,22.2972,320.5917,39.4113,0,U,64340,999,6024,.18251832E-3,.2237E-4,0
STARLINK-33977,2025-126A,2026-07-18T01:44:22.411104,14.98323486,.00025146,70.0001,65.6520,268.2400,91.8471,0,U,64344,999,6142,.24607811E-3,.2844E-4,0
STARLINK-34426,2025-126B,2026-07-18T01:38:06.596160,14.98341499,.00029208,70.0000,65.6314,267.0543,93.0282,0,U,64345,999,6021,.24500864E-3,.2832E-4,0
STARLINK-34437,2025-126C,2026-07-18T15:09:17.191872,14.98332403,.00027801,70.0001,64.3896,267.4153,92.6688,0,U,64346,999,6029,.22329031E-3,.2572E-4,0
STARLINK-34407,2025-126D,2026-07-18T15:15:30.808800,14.98336340,.00030132,70.0000,64.4002,266.8569,93.2245,0,U,64347,999,6029,.19400424E-3,.2223E-4,0
STARLINK-34274,2025-126E,2026-07-18T13:57:11.454912,14.98336487,.00025699,70.0001,64.6172,264.3210,95.7657,0,U,64348,999,6028,.21152506E-3,.2432E-4,0
STARLINK-34301,2025-126F,2026-07-18T12:57:03.386592,14.98331427,.00026002,69.9999,64.4677,268.1842,91.9020,0,U,64349,999,6028,.73414071E-4,.783E-5,0
STARLINK-34425,2025-126G,2026-07-18T00:38:03.786144,14.98327297,.00026847,69.9999,65.8867,270.6039,89.4812,0,U,64350,999,6020,.27391804E-3,.3177E-4,0
STARLINK-34389,2025-126H,2026-07-18T14:45:27.051552,14.98324504,.00026866,69.9999,64.3251,271.9447,88.1404,0,U,64351,999,6029,.2051096E-3,.2355E-4,0
STARLINK-34385,2025-126J,2026-07-18T15:21:16.677504,14.98332761,.00025798,70.0003,64.4179,268.1963,91.8900,0,U,64352,999,6029,.11523411E-3,.1282E-4,0
STARLINK-34431,2025-126K,2026-07-18T01:38:20.418432,14.98335597,.00021955,70.0001,65.6348,269.4788,90.6119,0,U,64353,999,6021,.16717648E-3,.1903E-4,0
